{"type": "FeatureCollection", "features": [ {"type": "Feature", "properties": {"norad_id": 33841, "name": "COSMOS 2251 DEB", "group": "cosmos-2251-debris", "lat": 25.373789612044902, "lon": 98.27770123777398, "alt_km": 776.4795383240189, "timestamp": "2025-12-08T08:59:01.159239+00:00", "meta": {"OBJECT_NAME": "COSMOS 2251 DEB", "OBJECT_ID": "1993-036CJ", "EPOCH": "2025-12-07T22:33:49.919904", "MEAN_MOTION": 14.37848622, "ECCENTRICITY": 0.00203259, "INCLINATION": 74.0375, "RA_OF_ASC_NODE": 286.8786, "ARG_OF_PERICENTER": 8.374, "MEAN_ANOMALY": 58.5196, "EPHEMERIS_TYPE": 0, "CLASSIFICATION_TYPE": "U", "NORAD_CAT_ID": 33841, "ELEMENT_SET_NO": 999, "REV_AT_EPOCH": 88045, "BSTAR": 0.00040733242, "MEAN_MOTION_DOT": 1.205e-05, "MEAN_MOTION_DDOT": 0}, "tle": {"line1": "1 33841U 93036CJ  25341.94016111  .00001205  00000+0  40733-3 0  9995", "line2": "2 33841  74.0375 286.8786 0020325   8.3740  58.5196 14.37848622880450"}}, "geometry": {"type": "Point", "coordinates": [98.27770123777398, 25.373789612044902]}}, {"type": "Feature", "properties": {"norad_id": 33842, "name": "COSMOS 2251 DEB", "group": "cosmos-2251-debris", "lat": -26.86430725541957, "lon": -140.5835559833234, "alt_km": 721.4644627765119, "timestamp": "2025-12-08T08:59:01.159249+00:00", "meta": {"OBJECT_NAME": "COSMOS 2251 DEB", "OBJECT_ID": "1993-036CK", "EPOCH": "2025-12-07T23:07:36.155424", "MEAN_MOTION": 14.42682524, "ECCENTRICITY": 0.00471696, "INCLINATION": 74.034, "RA_OF_ASC_NODE": 228.5168, "ARG_OF_PERICENTER": 336.7909, "MEAN_ANOMALY": 23.1116, "EPHEMERIS_TYPE": 0, "CLASSIFICATION_TYPE": "U", "NORAD_CAT_ID": 33842, "ELEMENT_SET_NO": 999, "REV_AT_EPOCH": 88268, "BSTAR": 0.00047705953, "MEAN_MOTION_DOT": 1.581e-05, "MEAN_MOTION_DDOT": 0}, "tle": {"line1": "1 33842U 93036CK  25341.96361291  .00001581  00000+0  47706-3 0  9994", "line2": "2 33842  74.0340 228.5168 0047169 336.7909  23.1116 14.42682524882680"}}, "geometry": {"type": "Point", "coordinates": [-140.5835559833234, -26.86430725541957]}}, {"type": "Feature", "properties": {"norad_id": 33844, "name": "COSMOS 2251 DEB", "group": "cosmos-2251-debris", "lat": 41.24359361128524, "lon": 75.25265794001811, "alt_km": 750.1169948328488, "timestamp": "2025-12-08T08:59:01.159260+00:00", "meta": {"OBJECT_NAME": "COSMOS 2251 DEB", "OBJECT_ID": "1993-036CM", "EPOCH": "2025-12-07T23:32:20.497920", "MEAN_MOTION": 14.33700481, "ECCENTRICITY": 0.00470922, "INCLINATION": 74.0681, "RA_OF_ASC_NODE": 61.4668, "ARG_OF_PERICENTER": 84.9186, "MEAN_ANOMALY": 88.497, "EPHEMERIS_TYPE": 0, "CLASSIFICATION_TYPE": "U", "NORAD_CAT_ID": 33844, "ELEMENT_SET_NO": 999, "REV_AT_EPOCH": 87657, "BSTAR": 0.00057693206, "MEAN_MOTION_DOT": 1.596e-05, "MEAN_MOTION_DDOT": 0}, "tle": {"line1": "1 33844U 93036CM  25341.98079280  .00001596  00000+0  57693-3 0  9994", "line2": "2 33844  74.0681  61.4668 0047092  84.9186  88.4970 14.33700481876579"}}, "geometry": {"type": "Point", "coordinates": [75.25265794001811, 41.24359361128524]}}, {"type": "Feature", "properties": {"norad_id": 33848, "name": "COSMOS 2251 DEB", "group": "cosmos-2251-debris", "lat": 56.982345979734404, "lon": 31.908631278227556, "alt_km": 710.286133789532, "timestamp": "2025-12-08T08:59:01.159270+00:00", "meta": {"OBJECT_NAME": "COSMOS 2251 DEB", "OBJECT_ID": "1993-036CR", "EPOCH": "2025-12-07T20:14:08.941056", "MEAN_MOTION": 14.44013745, "ECCENTRICITY": 0.00409367, "INCLINATION": 74.0317, "RA_OF_ASC_NODE": 6.7531, "ARG_OF_PERICENTER": 64.2376, "MEAN_ANOMALY": 116.4531, "EPHEMERIS_TYPE": 0, "CLASSIFICATION_TYPE": "U", "NORAD_CAT_ID": 33848, "ELEMENT_SET_NO": 999, "REV_AT_EPOCH": 87760, "BSTAR": 0.0016300782, "MEAN_MOTION_DOT": 5.608e-05, "MEAN_MOTION_DDOT": 0}, "tle": {"line1": "1 33848U 93036CR  25341.84315904  .00005608  00000+0  16301-2 0  9997", "line2": "2 33848  74.0317   6.7531 0040936  64.2376 116.4531 14.44013745877604"}}, "geometry": {"type": "Point", "coordinates": [31.908631278227556, 56.982345979734404]}}, {"type": "Feature", "properties": {"norad_id": 33892, "name": "COSMOS 2251 DEB", "group": "cosmos-2251-debris", "lat": -47.04585436641084, "lon": 91.83038387432012, "alt_km": 900.369698462433, "timestamp": "2025-12-08T08:59:01.159280+00:00", "meta": {"OBJECT_NAME": "COSMOS 2251 DEB", "OBJECT_ID": "1993-036CV", "EPOCH": "2025-12-07T20:27:47.868768", "MEAN_MOTION": 14.23308694, "ECCENTRICITY": 0.01132968, "INCLINATION": 73.8032, "RA_OF_ASC_NODE": 110.9727, "ARG_OF_PERICENTER": 143.1238, "MEAN_ANOMALY": 15.0234, "EPHEMERIS_TYPE": 0, "CLASSIFICATION_TYPE": "U", "NORAD_CAT_ID": 33892, "ELEMENT_SET_NO": 999, "REV_AT_EPOCH": 86885, "BSTAR": 0.0017573958, "MEAN_MOTION_DOT": 4.23e-05, "MEAN_MOTION_DDOT": 0}, "tle": {"line1": "1 33892U 93036CV  25341.85263737  .00004230  00000+0  17574-2 0  9996", "line2": "2 33892  73.8032 110.9727 0113296 143.1238  15.0234 14.23308694868851"}}, "geometry": {"type": "Point", "coordinates": [91.83038387432012, -47.04585436641084]}}, {"type": "Feature", "properties": {"norad_id": 33894, "name": "COSMOS 2251 DEB", "group": "cosmos-2251-debris", "lat": 28.274302718856635, "lon": 4.850849511498731, "alt_km": 1333.5307273177677, "timestamp": "2025-12-08T08:59:01.159290+00:00", "meta": {"OBJECT_NAME": "COSMOS 2251 DEB", "OBJECT_ID": "1993-036CX", "EPOCH": "2025-12-07T11:01:40.444032", "MEAN_MOTION": 13.21278571, "ECCENTRICITY": 0.0579559, "INCLINATION": 73.7666, "RA_OF_ASC_NODE": 357.2504, "ARG_OF_PERICENTER": 277.3386, "MEAN_ANOMALY": 76.2223, "EPHEMERIS_TYPE": 0, "CLASSIFICATION_TYPE": "U", "NORAD_CAT_ID": 33894, "ELEMENT_SET_NO": 999, "REV_AT_EPOCH": 80638, "BSTAR": 0.0025865906, "MEAN_MOTION_DOT": 2.553e-05, "MEAN_MOTION_DDOT": 0}, "tle": {"line1": "1 33894U 93036CX  25341.45949588  .00002553  00000+0  25866-2 0  9998", "line2": "2 33894  73.7666 357.2504 0579559 277.3386  76.2223 13.21278571806380"}}, "geometry": {"type": "Point", "coordinates": [4.850849511498731, 28.274302718856635]}}, {"type": "Feature", "properties": {"norad_id": 33896, "name": "COSMOS 2251 DEB", "group": "cosmos-2251-debris", "lat": 73.64312380348366, "lon": -112.31590008029708, "alt_km": 846.9121871365287, "timestamp": "2025-12-08T08:59:01.159301+00:00", "meta": {"OBJECT_NAME": "COSMOS 2251 DEB", "OBJECT_ID": "1993-036CZ", "EPOCH": "2025-12-07T23:11:31.549632", "MEAN_MOTION": 14.19019575, "ECCENTRICITY": 0.0126266, "INCLINATION": 73.7659, "RA_OF_ASC_NODE": 165.3487, "ARG_OF_PERICENTER": 341.7982, "MEAN_ANOMALY": 181.5183, "EPHEMERIS_TYPE": 0, "CLASSIFICATION_TYPE": "U", "NORAD_CAT_ID": 33896, "ELEMENT_SET_NO": 999, "REV_AT_EPOCH": 86672, "BSTAR": 0.00068891524, "MEAN_MOTION_DOT": 1.53e-05, "MEAN_MOTION_DDOT": 0}, "tle": {"line1": "1 33896U 93036CZ  25341.96633738  .00001530  00000+0  68892-3 0  9994", "line2": "2 33896  73.7659 165.3487 0126266 341.7982 181.5183 14.19019575866727"}}, "geometry": {"type": "Point", "coordinates": [-112.31590008029708, 73.64312380348366]}}, {"type": "Feature", "properties": {"norad_id": 33899, "name": "COSMOS 2251 DEB", "group": "cosmos-2251-debris", "lat": 14.136247495059392, "lon": -90.06577654402803, "alt_km": 650.0203652356504, "timestamp": "2025-12-08T08:59:01.159311+00:00", "meta": {"OBJECT_NAME": "COSMOS 2251 DEB", "OBJECT_ID": "1993-036DC", "EPOCH": "2025-12-07T18:00:28.410912", "MEAN_MOTION": 14.61110664, "ECCENTRICITY": 0.00572658, "INCLINATION": 74.0545, "RA_OF_ASC_NODE": 95.2545, "ARG_OF_PERICENTER": 159.348, "MEAN_ANOMALY": 324.8974, "EPHEMERIS_TYPE": 0, "CLASSIFICATION_TYPE": "U", "NORAD_CAT_ID": 33899, "ELEMENT_SET_NO": 999, "REV_AT_EPOCH": 88766, "BSTAR": 0.0018745854, "MEAN_MOTION_DOT": 9.417e-05, "MEAN_MOTION_DDOT": 0}, "tle": {"line1": "1 33899U 93036DC  25341.75032883  .00009417  00000+0  18746-2 0  9992", "line2": "2 33899  74.0545  95.2545 0057265 159.3480 324.8974 14.61110664887666"}}, "geometry": {"type": "Point", "coordinates": [-90.06577654402803, 14.136247495059392]}}, {"type": "Feature", "properties": {"norad_id": 33900, "name": "COSMOS 2251 DEB", "group": "cosmos-2251-debris", "lat": -60.878678777873695, "lon": -140.86079479008222, "alt_km": 701.6018329329172, "timestamp": "2025-12-08T08:59:01.159321+00:00", "meta": {"OBJECT_NAME": "COSMOS 2251 DEB", "OBJECT_ID": "1993-036DD", "EPOCH": "2025-12-07T19:29:23.216064", "MEAN_MOTION": 14.58321316, "ECCENTRICITY": 0.00470768, "INCLINATION": 74.0194, "RA_OF_ASC_NODE": 9.2518, "ARG_OF_PERICENTER": 162.754, "MEAN_ANOMALY": 11.4369, "EPHEMERIS_TYPE": 0, "CLASSIFICATION_TYPE": "U", "NORAD_CAT_ID": 33900, "ELEMENT_SET_NO": 999, "REV_AT_EPOCH": 88964, "BSTAR": 0.00068372876, "MEAN_MOTION_DOT": 3.183e-05, "MEAN_MOTION_DDOT": 0}, "tle": {"line1": "1 33900U 93036DD  25341.81207426  .00003183  00000+0  68373-3 0  9995", "line2": "2 33900  74.0194   9.2518 0047076 162.7540  11.4369 14.58321316889649"}}, "geometry": {"type": "Point", "coordinates": [-140.86079479008222, -60.878678777873695]}}, {"type": "Feature", "properties": {"norad_id": 33901, "name": "COSMOS 2251 DEB", "group": "cosmos-2251-debris", "lat": 44.15494076738462, "lon": 74.95697250566754, "alt_km": 535.0294635840792, "timestamp": "2025-12-08T08:59:01.159332+00:00", "meta": {"OBJECT_NAME": "COSMOS 2251 DEB", "OBJECT_ID": "1993-036DE", "EPOCH": "2025-12-07T21:41:05.379072", "MEAN_MOTION": 15.15082925, "ECCENTRICITY": 0.00333553, "INCLINATION": 73.7731, "RA_OF_ASC_NODE": 59.526, "ARG_OF_PERICENTER": 191.6775, "MEAN_ANOMALY": 168.3649, "EPHEMERIS_TYPE": 0, "CLASSIFICATION_TYPE": "U", "NORAD_CAT_ID": 33901, "ELEMENT_SET_NO": 999, "REV_AT_EPOCH": 89440, "BSTAR": 0.0040041345, "MEAN_MOTION_DOT": 0.00076768, "MEAN_MOTION_DDOT": 0}, "tle": {"line1": "1 33901U 93036DE  25341.90353448  .00076768  00000+0  40041-2 0  9992", "line2": "2 33901  73.7731  59.5260 0033355 191.6775 168.3649 15.15082925894408"}}, "geometry": {"type": "Point", "coordinates": [74.95697250566754, 44.15494076738462]}}]}